[{"OBJECT_NAME":"STARLINK-1954","OBJECT_ID":"2021-009H","EPOCH":"2026-03-09T23:20:25.352160","MEAN_MOTION":15.30849174,"ECCENTRICITY":0.00046184,"INCLINATION":53.0574,"RA_OF_ASC_NODE":8.8654,"ARG_OF_PERICENTER":103.3293,"MEAN_ANOMALY":256.8222,"EPHEMERIS_TYPE":0,"CLASSIFICATION_TYPE":"U","NORAD_CAT_ID":47555,"ELEMENT_SET_NO":999,"REV_AT_EPOCH":28100,"BSTAR":0.0022371791,"MEAN_MOTION_DOT":0.00067883,"MEAN_MOTION_DDOT":0},{"OBJECT_NAME":"YAOGAN-36 04C","OBJECT_ID":"2022-171E","EPOCH":"2026-03-09T18:55:44.889600","MEAN_MOTION":15.29852307,"ECCENTRICITY":0.00066848,"INCLINATION":34.9797,"RA_OF_ASC_NODE":96.6578,"ARG_OF_PERICENTER":275.3761,"MEAN_ANOMALY":84.6192,"EPHEMERIS_TYPE":0,"CLASSIFICATION_TYPE":"U","NORAD_CAT_ID":54750,"ELEMENT_SET_NO":999,"REV_AT_EPOCH":18024,"BSTAR":0.00054591902,"MEAN_MOTION_DOT":0.00016196,"MEAN_MOTION_DDOT":0}]
